OBJECT_NAME,OBJECT_ID,EPOCH,MEAN_MOTION,ECCENTRICITY,INCLINATION,RA_OF_ASC_NODE,ARG_OF_PERICENTER,MEAN_ANOMALY,EPHEMERIS_TYPE,CLASSIFICATION_TYPE,NORAD_CAT_ID,ELEMENT_SET_NO,REV_AT_EPOCH,BSTAR,MEAN_MOTION_DOT,MEAN_MOTION_DDOT
STARLINK-37600,2026-123G,2026-06-27T07:42:57.136032,15.75272271,.00010626,53.1569,191.4172,92.8617,267.2525,0,U,69359,999,363,.17208908E-2,.272215E-2,0
STARLINK-37599,2026-123H,2026-06-27T06:33:41.680512,15.80905323,.00020973,53.1555,191.0948,19.4625,340.6477,0,U,69360,999,363,.13587988E-2,.276669E-2,0
STARLINK-37039,2026-123J,2026-06-27T07:09:48.539808,15.75266228,.00011994,53.1591,191.2624,90.9242,269.1916,0,U,69361,999,363,.17148935E-2,.271157E-2,0
STARLINK-37040,2026-123K,2026-06-27T07:44:01.989600,15.80924286,.00011052,53.1565,190.6806,102.1998,257.9148,0,U,69362,999,364,.14453447E-2,.295233E-2,0
STARLINK-37582,2026-123L,2026-06-27T07:29:52.856448,15.75259741,.00011416,53.1563,191.3551,89.8489,270.2662,0,U,69363,999,363,.16714296E-2,.263967E-2,0
STARLINK-37309,2026-123M,2026-06-27T06:00:02.000160,15.75252612,.00012182,53.1586,191.0837,81.4077,207.9536,0,U,69364,999,491,-.30033999E-3,-.46453E-3,0
STARLINK-37436,2026-123N,2026-06-27T07:24:54.700416,15.80911261,.00010638,53.1566,190.5918,80.2164,279.8978,0,U,69365,999,364,.13679008E-2,.278667E-2,0
STARLINK-37581,2026-123P,2026-06-27T05:59:17.356416,15.80904759,.00013001,53.1561,190.9331,46.2018,313.9112,0,U,69366,999,363,.11705354E-2,.237129E-2,0
STARLINK-37683,2026-123Q,2026-06-27T06:43:39.952992,15.75258672,.00018087,53.1571,191.1382,34.7665,325.3473,0,U,69367,999,363,.1452972E-2,.228398E-2,0
STARLINK-37687,2026-123R,2026-06-27T07:18:29.204352,15.80913918,.00013579,53.1566,190.5615,104.4728,255.6446,0,U,69368,999,364,.14155163E-2,.288767E-2,0
STARLINK-37631,2026-123S,2026-06-27T06:00:02.000160,15.75225123,.00008597,53.1592,190.8708,75.1637,317.2295,0,U,69369,999,482,-.18854717E-3,-.29422E-3,0
STARLINK-37673,2026-123T,2026-06-27T06:24:30.188448,15.75458596,.00026355,53.1593,191.0504,119.2426,240.8859,0,U,69370,999,363,-.35246776E-2,-.514515E-2,0
STARLINK-37645,2026-123U,2026-06-27T06:00:02.000160,15.75260590,.00011504,53.1584,190.9761,88.6557,252.2143,0,U,69371,999,482,-.49929128E-3,-.76557E-3,0
STARLINK-37688,2026-123V,2026-06-27T07:18:11.586528,15.79659931,.00011708,53.1562,190.5571,106.4098,253.7053,0,U,69372,999,364,.10809837E-2,.206036E-2,0
STARLINK-37685,2026-123W,2026-06-27T07:17:16.127232,15.80894344,.00009019,53.1560,190.5532,79.6389,280.4735,0,U,69373,999,364,.13844397E-2,.281935E-2,0
STARLINK-37632,2026-123X,2026-06-27T07:16:12.063360,15.80919283,.00011005,53.1558,190.5482,89.9156,270.1993,0,U,69374,999,364,.14834137E-2,.303243E-2,0
STARLINK-37454,2026-123Y,2026-06-27T07:14:37.328352,15.80908859,.00013924,53.1558,190.5406,120.9868,239.1292,0,U,69375,999,364,.15990656E-2,.32772E-2,0
STARLINK-37485,2026-123Z,2026-06-27T06:00:02.000160,15.75261426,.00011538,53.1583,190.9176,95.1899,273.2687,0,U,69376,999,491,-.51573794E-3,-.79038E-3,0
STARLINK-37439,2026-123AA,2026-06-27T07:03:18.613152,15.80909359,.0001122,53.1565,190.4856,68.2204,291.8938,0,U,69377,999,364,.1523678E-2,.311658E-2,0
STARLINK-37376,2026-123AB,2026-06-27T06:24:03.226464,15.75306976,.00009066,53.1588,191.0443,104.7483,255.3638,0,U,69378,999,363,.12721306E-2,.199624E-2,0
STARLINK-37383,2026-123AC,2026-06-27T06:00:02.000160,15.75266284,.00011484,53.1592,190.7066,89.0654,20.5644,0,U,69379,999,492,-.36697768E-3,-.56584E-3,0
STARLINK-37411,2026-123AD,2026-06-27T07:05:15.885600,15.80905612,.00008233,53.1561,190.4944,76.9178,283.1937,0,U,69380,999,364,.14530362E-2,.296605E-2,0
STARLINK-37427,2026-123AE,2026-06-27T06:00:02.000160,15.80854286,.00011173,53.1565,190.6744,99.7649,25.7619,0,U,69381,999,483,.18973491E-3,.36876E-3,0
QIANFAN-165,2026-124A,2026-06-27T05:17:55.100832,14.16013929,.00035213,88.9984,0.9058,107.5701,252.5872,0,U,69382,999,323,.54148001E-4,.121E-5,0
QIANFAN-166,2026-124B,2026-06-27T05:00:49.973472,14.17061148,.0003007,88.9985,0.9043,102.2113,257.9412,0,U,69383,999,323,.47919892E-4,.111E-5,0
QIANFAN-167,2026-124C,2026-06-27T05:06:31.328640,14.16527432,.00030717,88.9984,0.9046,140.4988,219.6425,0,U,69384,999,323,.43979316E-4,.102E-5,0
QIANFAN-168,2026-124D,2026-06-27T06:29:04.941312,14.17874412,.00038519,88.9984,0.8947,117.2397,242.9185,0,U,69385,999,324,.44739972E-4,.106E-5,0
QIANFAN-169,2026-124E,2026-06-27T06:21:25.835904,14.18288163,.00041899,88.9984,0.8938,131.8968,228.2579,0,U,69386,999,324,.47080012E-4,.111E-5,0
QIANFAN-170,2026-124F,2026-06-27T06:08:31.458624,14.19184929,.00037232,88.9983,0.8924,113.3977,246.7605,0,U,69387,999,324,.41294604E-4,.101E-5,0
QIANFAN-171,2026-124G,2026-06-27T05:55:15.988512,14.20069046,.00032616,88.9984,0.8911,152.8791,207.2570,0,U,69388,999,324,.45474084E-4,.111E-5,0
