STARLINK-37600          
1 69359U 26123G   26178.32149463  .00272215  00000+0  17209-2 0  9991
2 69359  53.1569 191.4172 0001062  92.8617 267.2525 15.75272271  3630
STARLINK-37599          
1 69360U 26123H   26178.27339908  .00276669  00000+0  13588-2 0  9995
2 69360  53.1555 191.0948 0002097  19.4625 340.6477 15.80905323  3636
STARLINK-37039          
1 69361U 26123J   26178.29847847  .00271157  00000+0  17149-2 0  9998
2 69361  53.1591 191.2624 0001199  90.9242 269.1916 15.75266228  3632
STARLINK-37040          
1 69362U 26123K   26178.32224525  .00295233  00000+0  14453-2 0  9991
2 69362  53.1565 190.6806 0001105 102.1998 257.9148 15.80924286  3644
STARLINK-37582          
1 69363U 26123L   26178.31241732  .00263967  00000+0  16714-2 0  9991
2 69363  53.1563 191.3551 0001141  89.8489 270.2662 15.75259741  3633
STARLINK-37309          
1 69364U 26123M   26178.25002315 -.00046453  00000+0 -30034-3 0  9990
2 69364  53.1586 191.0837 0001218  81.4077 207.9536 15.75252612  4918
STARLINK-37436          
1 69365U 26123N   26178.30896644  .00278667  00000+0  13679-2 0  9990
2 69365  53.1566 190.5918 0001063  80.2164 279.8978 15.80911261  3648
STARLINK-37581          
1 69366U 26123P   26178.24950644  .00237129  00000+0  11705-2 0  9991
2 69366  53.1561 190.9331 0001300  46.2018 313.9112 15.80904759  3634
STARLINK-37683          
1 69367U 26123Q   26178.28032353  .00228398  00000+0  14530-2 0  9991
2 69367  53.1571 191.1382 0001808  34.7665 325.3473 15.75258672  3635
STARLINK-37687          
1 69368U 26123R   26178.30450468  .00288767  00000+0  14155-2 0  9995
2 69368  53.1566 190.5615 0001357 104.4728 255.6446 15.80913918  3649
STARLINK-37631          
1 69369U 26123S   26178.25002315 -.00029422  00000+0 -18855-3 0  9999
2 69369  53.1592 190.8708 0000859  75.1637 317.2295 15.75225123  4820
STARLINK-37673          
1 69370U 26123T   26178.26701607 -.00514515  00000+0 -35247-2 0  9997
2 69370  53.1593 191.0504 0002635 119.2426 240.8859 15.75458596  3637
STARLINK-37645          
1 69371U 26123U   26178.25002315 -.00076557  00000+0 -49929-3 0  9999
2 69371  53.1584 190.9761 0001150  88.6557 252.2143 15.75260590  4826
STARLINK-37688          
1 69372U 26123V   26178.30430077  .00206036  00000+0  10810-2 0  9997
2 69372  53.1562 190.5571 0001170 106.4098 253.7053 15.79659931  3649
STARLINK-37685          
1 69373U 26123W   26178.30365888  .00281935  00000+0  13844-2 0  9996
2 69373  53.1560 190.5532 0000901  79.6389 280.4735 15.80894344  3645
STARLINK-37632          
1 69374U 26123X   26178.30291740  .00303243  00000+0  14834-2 0  9999
2 69374  53.1558 190.5482 0001100  89.9156 270.1993 15.80919283  3647
STARLINK-37454          
1 69375U 26123Y   26178.30182093  .00327720  00000+0  15991-2 0  9991
2 69375  53.1558 190.5406 0001392 120.9868 239.1292 15.80908859  3647
STARLINK-37485          
1 69376U 26123Z   26178.25002315 -.00079038  00000+0 -51574-3 0  9990
2 69376  53.1583 190.9176 0001153  95.1899 273.2687 15.75261426  4910
STARLINK-37439          
1 69377U 26123AA  26178.29396543  .00311658  00000+0  15237-2 0  9994
2 69377  53.1565 190.4856 0001122  68.2204 291.8938 15.80909359  3642
STARLINK-37376          
1 69378U 26123AB  26178.26670401  .00199624  00000+0  12721-2 0  9992
2 69378  53.1588 191.0443 0000906 104.7483 255.3638 15.75306976  3632
STARLINK-37383          
1 69379U 26123AC  26178.25002315 -.00056584  00000+0 -36698-3 0  9994
2 69379  53.1592 190.7066 0001148  89.0654  20.5644 15.75266284  4928
STARLINK-37411          
1 69380U 26123AD  26178.29532275  .00296605  00000+0  14530-2 0  9991
2 69380  53.1561 190.4944 0000823  76.9178 283.1937 15.80905612  3644
STARLINK-37427          
1 69381U 26123AE  26178.25002315  .00036876  00000+0  18973-3 0  9993
2 69381  53.1565 190.6744 0001117  99.7649  25.7619 15.80854286  4831
QIANFAN-165             
1 69382U 26124A   26178.22077663  .00000121  00000+0  54148-4 0  9999
2 69382  88.9984   0.9058 0003521 107.5701 252.5872 14.16013929  3235
QIANFAN-166             
1 69383U 26124B   26178.20891173  .00000111  00000+0  47920-4 0  9997
2 69383  88.9985   0.9043 0003007 102.2113 257.9412 14.17061148  3235
QIANFAN-167             
1 69384U 26124C   26178.21286260  .00000102  00000+0  43979-4 0  9994
2 69384  88.9984   0.9046 0003071 140.4988 219.6425 14.16527432  3234
QIANFAN-168             
1 69385U 26124D   26178.27019608  .00000106  00000+0  44740-4 0  9992
2 69385  88.9984   0.8947 0003851 117.2397 242.9185 14.17874412  3243
QIANFAN-169             
1 69386U 26124E   26178.26488236  .00000111  00000+0  47080-4 0  9995
2 69386  88.9984   0.8938 0004189 131.8968 228.2579 14.18288163  3242
QIANFAN-170             
1 69387U 26124F   26178.25591966  .00000101  00000+0  41295-4 0  9991
2 69387  88.9983   0.8924 0003723 113.3977 246.7605 14.19184929  3246
QIANFAN-171             
1 69388U 26124G   26178.24671283  .00000111  00000+0  45474-4 0  9996
2 69388  88.9984   0.8911 0003261 152.8791 207.2570 14.20069046  3240
